{
    "links": {
        "self": "http://www.neowsapp.com/rest/v1/neo/3091994?api_key=iIulBulltgU6a56xZRHN4H3l9WmuAYTsLGpBGhQ2"
    },
    "id": "3091994",
    "neo_reference_id": "3091994",
    "name": "(2001 QF96)",
    "designation": "2001 QF96",
    "nasa_jpl_url": "http://ssd.jpl.nasa.gov/sbdb.cgi?sstr=3091994",
    "absolute_magnitude_h": 24.5,
    "estimated_diameter": {
        "kilometers": {
            "estimated_diameter_min": 0.0334622374,
            "estimated_diameter_max": 0.0748238376
        },
        "meters": {
            "estimated_diameter_min": 33.4622374455,
            "estimated_diameter_max": 74.8238376074
        },
        "miles": {
            "estimated_diameter_min": 0.0207924639,
            "estimated_diameter_max": 0.0464933628
        },
        "feet": {
            "estimated_diameter_min": 109.7842471007,
            "estimated_diameter_max": 245.4850393757
        }
    },
    "is_potentially_hazardous_asteroid": false,
    "close_approach_data": [
        {
            "close_approach_date": "1999-12-08",
            "close_approach_date_full": "1999-Dec-08 13:17",
            "epoch_date_close_approach": 944659020000,
            "relative_velocity": {
                "kilometers_per_second": "16.0927877254",
                "kilometers_per_hour": "57934.0358115703",
                "miles_per_hour": "35997.9568630282"
            },
            "miss_distance": {
                "astronomical": "0.3573997067",
                "lunar": "139.0284859063",
                "kilometers": "53466234.860944729",
                "miles": "33222377.8004621002"
            },
            "orbiting_body": "Earth"
        },
        {
            "close_approach_date": "2001-09-12",
            "close_approach_date_full": "2001-Sep-12 17:25",
            "epoch_date_close_approach": 1000315500000,
            "relative_velocity": {
                "kilometers_per_second": "7.1446168764",
                "kilometers_per_hour": "25720.6207551629",
                "miles_per_hour": "15981.7934908955"
            },
            "miss_distance": {
                "astronomical": "0.032444973",
                "lunar": "12.621094497",
                "kilometers": "4853698.85300751",
                "miles": "3015948.615863238"
            },
            "orbiting_body": "Earth"
        },
        {
            "close_approach_date": "2003-08-07",
            "close_approach_date_full": "2003-Aug-07 05:49",
            "epoch_date_close_approach": 1060235340000,
            "relative_velocity": {
                "kilometers_per_second": "20.9160331238",
                "kilometers_per_hour": "75297.7192457297",
                "miles_per_hour": "46787.0744946591"
            },
            "miss_distance": {
                "astronomical": "0.4965101205",
                "lunar": "193.1424368745",
                "kilometers": "74276856.460243335",
                "miles": "46153498.438234623"
            },
            "orbiting_body": "Earth"
        },
        {
            "close_approach_date": "2149-12-11",
            "close_approach_date_full": "2149-Dec-11 01:38",
            "epoch_date_close_approach": 5678473080000,
            "relative_velocity": {
                "kilometers_per_second": "16.1740911722",
                "kilometers_per_hour": "58226.7282199657",
                "miles_per_hour": "36179.8245431226"
            },
            "miss_distance": {
                "astronomical": "0.3583575818",
                "lunar": "139.4010993202",
                "kilometers": "53609530.935630766",
                "miles": "33311417.8524299308"
            },
            "orbiting_body": "Earth"
        }
    ],
    "orbital_data": {
        "orbit_id": "16",
        "orbit_determination_date": "2017-04-06 09:16:12",
        "first_observation_date": "2001-08-18",
        "last_observation_date": "2001-09-13",
        "data_arc_in_days": 26,
        "observations_used": 59,
        "orbit_uncertainty": "7",
        "minimum_orbit_intersection": ".03263",
        "jupiter_tisserand_invariant": "4.377",
        "epoch_osculation": "2459000.5",
        "eccentricity": ".3626493478325603",
        "semi_major_axis": "1.544923168667401",
        "inclination": "6.649200466372322",
        "ascending_node_longitude": "158.7994349895722",
        "orbital_period": "701.3886861427852",
        "perihelion_distance": ".9846577890987557",
        "perihelion_argument": "224.3428331187736",
        "aphelion_distance": "2.105188548236047",
        "perihelion_time": "2459208.171653382797",
        "mean_anomaly": "253.4088948184329",
        "mean_motion": ".5132674750996953",
        "equinox": "J2000",
        "orbit_class": {
            "orbit_class_type": "APO",
            "orbit_class_description": "Near-Earth asteroid orbits which cross the Earth’s orbit similar to that of 1862 Apollo",
            "orbit_class_range": "a (semi-major axis) > 1.0 AU; q (perihelion) < 1.017 AU"
        }
    },
    "is_sentry_object": false
}